OBJECT_NAME,OBJECT_ID,EPOCH,MEAN_MOTION,ECCENTRICITY,INCLINATION,RA_OF_ASC_NODE,ARG_OF_PERICENTER,MEAN_ANOMALY,EPHEMERIS_TYPE,CLASSIFICATION_TYPE,NORAD_CAT_ID,ELEMENT_SET_NO,REV_AT_EPOCH,BSTAR,MEAN_MOTION_DOT,MEAN_MOTION_DDOT
CUBEBUG-2 (LO-74),2013-066AA,2026-06-27T20:20:35.180160,14.93846491,.00573083,97.8904,127.8712,353.7798,6.2703,0,U,39440,999,67858,.40352956E-3,.4363E-4,0
FUNCUBE-1 (AO-73),2013-066AE,2026-06-27T20:40:18.831648,15.09613823,.00367454,97.8273,150.5306,164.6087,195.6268,0,U,39444,999,68127,.42818199E-3,.6926E-4,0
UWE-3,2013-066AG,2026-06-27T20:13:53.583456,14.97108273,.00468575,97.8711,134.9896,284.9511,74.6525,0,U,39446,999,67917,.30476329E-3,.3532E-4,0
UNISAT-6,2014-033C,2026-06-27T21:22:29.572320,14.88296010,.00456025,97.7884,331.4146,34.8221,325.5965,0,U,40012,999,64775,.29502313E-3,.2723E-4,0
DUCHIFAT-1,2014-033M,2026-06-27T21:17:30.269760,15.66842534,.00007436,98.0448,239.5673,102.2255,257.9087,0,U,40021,999,65742,.10821547E-2,.115475E-2,0
QB50P1,2014-033R,2026-06-27T19:49:59.652768,15.18417330,.0008927,98.0961,190.7191,177.6408,182.4868,0,U,40025,999,65464,.39561954E-3,.8075E-4,0
LILACSAT-2,2015-049K,2026-06-27T21:55:16.627296,15.51791957,.00065577,97.4634,216.1641,198.1180,161.9840,0,U,40908,999,59741,.30351235E-3,.18055E-3,0
FOX-1A (AO-85),2015-058D,2026-06-27T21:11:42.785376,14.91012568,.0131104,64.7747,245.7432,52.4287,308.8647,0,U,40967,999,11516,.18842548E-3,.2022E-4,0
CAS-2T & KS-1Q,2016-066G,2026-06-27T18:26:00.690720,14.44727404,.03428946,98.3821,254.3834,97.4868,266.5413,0,U,41847,999,50632,.23154926E-3,.1607E-4,0
RADFXSAT (FOX-1B),2017-073E,2026-06-27T20:34:25.479840,15.12857396,.01485752,97.4692,45.8542,292.0285,66.5220,0,U,43017,999,46700,.29695417E-3,.6776E-4,0
DIWATA-2B,2018-084H,2026-06-27T23:21:19.315872,15.00499397,.00130302,98.1202,15.6523,136.3525,223.8731,0,U,43678,999,41783,.21235011E-3,.2614E-4,0
ES'HAIL 2,2018-090A,2026-06-27T21:11:02.942880,1.00271050,.00021467,0.0168,344.9592,143.8821,130.6903,0,U,43700,999,2778,0,.156E-5,0
FOX-1CLIFF (AO-95),2018-099N,2026-06-27T19:49:20.160192,15.26929261,.0007071,97.4387,239.0337,315.3143,44.7526,0,U,43770,999,41484,.40555147E-3,.10662E-3,0
ITASAT,2018-099AE,2026-06-27T21:21:52.250976,15.19184666,.00111047,97.4027,230.1884,320.0508,39.9908,0,U,43786,999,41453,.33444275E-3,.698E-4,0
JY1SAT (JO-97),2018-099AX,2026-06-27T09:41:16.128960,15.33970053,.00051423,97.4133,241.2746,217.6111,142.4773,0,U,43803,999,41519,.55516113E-3,.18194E-3,0
UWE-4,2018-111E,2026-06-27T18:17:53.300544,15.46767930,.0004303,97.5850,107.6450,286.0775,74.0000,0,U,43880,999,41241,.6252061E-3,.31309E-3,0
TIANYAN 01,2019-093C,2026-06-27T22:47:02.772960,14.86535100,.00148392,97.7532,250.9189,55.0759,305.1849,0,U,44881,999,35301,.11496294E-3,.966E-5,0
RS-44 & BREEZE-KM R/B,2019-096E,2026-06-27T20:56:13.118784,12.79749054,.02184888,82.5227,332.6037,119.2888,243.0243,0,U,44909,999,30371,.24402014E-4,.19E-6,0
SALSAT,2020-068K,2026-06-27T17:47:39.077664,15.29943751,.00078426,97.8846,182.4496,262.7765,97.2583,0,U,46495,999,31697,.25510061E-3,.7317E-4,0
XW-3 (CAS-9),2021-131B,2026-06-27T22:52:52.987584,14.41365955,.0005336,98.4985,271.2849,71.8715,288.3054,0,U,50466,999,23666,.99450555E-4,.278E-5,0
GREENCUBE (IO-117),2022-080E,2026-06-27T18:25:18.466176,6.42583239,.00089839,70.1441,294.5656,287.3296,72.6381,0,U,53109,999,9274,0,-.3E-7,0
UMKA 1 (RS40S),2023-091G,2026-06-27T22:47:49.593984,15.20939248,.00142583,97.5051,237.6058,84.4704,275.8157,0,U,57172,999,16564,.27545868E-3,.6043E-4,0
CUBESX-HSE 3 (RS42S),2023-091N,2026-06-27T22:56:10.880736,15.31479800,.00114189,97.5095,244.6799,60.9784,299.2600,0,U,57178,999,16607,.42751752E-3,.1295E-3,0
MONITOR-3 (RS58S),2023-091Q,2026-06-27T22:31:35.573952,15.28052672,.00126416,97.5086,242.4642,67.3400,292.9175,0,U,57180,999,16593,.39329689E-3,.10713E-3,0
MONITOR-4 (RS57S),2023-091S,2026-06-27T22:00:34.516224,15.28137301,.00126615,97.5080,242.4143,67.6781,292.5799,0,U,57182,999,16593,.39337421E-3,.10743E-3,0
MONITOR-2 (RS39S),2023-091U,2026-06-27T22:03:07.558272,15.19006672,.00126727,97.5072,237.1325,78.6637,281.6020,0,U,57184,999,16558,.24760483E-3,.5123E-4,0
SVYATOBOR 1 (RS60S),2023-091X,2026-06-27T22:32:50.654688,15.26792093,.00104068,97.5091,242.8164,61.8873,298.3416,0,U,57187,999,16595,.34111561E-3,.8924E-4,0
VIZARD-METEO (RS38S),2023-091Z,2026-06-27T23:03:18.528768,15.36360834,.00074154,97.5095,248.6632,43.9199,316.2633,0,U,57189,999,16634,.48228563E-3,.1705E-3,0
POLYTECH-UNIVERSE 3 (RS46S),2023-091AB,2026-06-27T22:40:13.719936,15.19213363,.00170752,97.5048,236.6622,92.8472,267.4716,0,U,57191,999,16558,.22935611E-3,.4777E-4,0
UTMN 2 (RS27S),2023-091AP,2026-06-27T23:13:04.489248,15.32308124,.00085367,97.5091,246.3389,50.8623,309.3376,0,U,57203,999,16619,.40045369E-3,.12432E-3,0
