CUBEBUG-2 (LO-74)
1 39440U 13066AA  26178.84762940  .00004363  00000-0  40353-3 0  9994
2 39440  97.8904 127.8712 0057308 353.7798   6.2703 14.93846491678583
FUNCUBE-1 (AO-73)
1 39444U 13066AE  26178.86132907  .00006926  00000-0  42818-3 0  9999
2 39444  97.8273 150.5306 0036745 164.6087 195.6268 15.09613823681278
UWE-3
1 39446U 13066AG  26178.84298129  .00003532  00000-0  30476-3 0  9995
2 39446  97.8711 134.9896 0046857 284.9511  74.6525 14.97108273679172
UNISAT-6
1 40012U 14033C   26178.89062005  .00002723  00000-0  29502-3 0  9997
2 40012  97.7884 331.4146 0045602  34.8221 325.5965 14.88296010647754
DUCHIFAT-1
1 40021U 14033M   26178.88715590  .00115475  00000-0  10822-2 0  9993
2 40021  98.0448 239.5673 0000744 102.2255 257.9087 15.66842534657425
LILACSAT-2
1 40908U 15049K   26178.91338689  .00018055  00000-0  30351-3 0  9995
2 40908  97.4634 216.1641 0006558 198.1180 161.9840 15.51791957597414
CAS-2T & KS-1Q
1 41847U 16066G   26178.76806355  .00001607  00000-0  23155-3 0  9990
2 41847  98.3821 254.3834 0342895  97.4868 266.5413 14.44727404506329
FOX-1B (AO-91)
1 43017U 17073E   26178.85723935  .00006776  00000-0  29695-3 0  9999
2 43017  97.4692  45.8542 0148575 292.0285  66.5220 15.12857396467005
FUNCUBE-3 (EO-79)/QB50P1
1 40025U 14033R   26178.82638487  .00008075  00000-0  39562-3 0  9990
2 40025  98.0961 190.7191 0008927 177.6408 182.4868 15.18417330654648
FOX-1A (AO-85)
1 40967U 15058D   26178.88313409  .00002022  00000-0  18843-3 0  9998
2 40967  64.7747 245.7432 0131104  52.4287 308.8647 14.91012568115165
DIWATA-2B (PO-101)
1 43678U 18084H   26178.97314023  .00002614  00000-0  21235-3 0  9991
2 43678  98.1202  15.6523 0013030 136.3525 223.8731 15.00499397417832
ESHAIL-2
1 43700U 18090A   26178.88267295  .00000156  00000-0  00000-0 0  9995
2 43700   0.0168 344.9592 0002147 143.8821 130.6903  1.00271050 27780
ITASAT-1
1 43786U 18099AE  26178.89018809  .00006980  00000-0  33444-3 0  9996
2 43786  97.4027 230.1884 0011105 320.0508  39.9908 15.19184666414533
FOX-1CLIFF (AO-95)
1 43770U 18099N   26178.82592778  .00010662  00000-0  40555-3 0  9997
2 43770  97.4387 239.0337 0007071 315.3143  44.7526 15.26929261414845
JY1SAT (JO-97)
1 43803U 18099AX  26178.40365890  .00018194  00000-0  55516-3 0  9992
2 43803  97.4133 241.2746 0005142 217.6111 142.4773 15.33970053415198
UWE-4
1 43880U 18111E   26178.76242246  .00031309  00000-0  62521-3 0  9997
2 43880  97.5850 107.6450 0004303 286.0775  74.0000 15.46767930412418
CAS-6 (TO-108)
1 44881U 19093C   26178.94933765  .00000966  00000-0  11496-3 0  9992
2 44881  97.7532 250.9189 0014839  55.0759 305.1849 14.86535100353015
DOSAAF-85 (RS-44)
1 44909U 19096E   26178.87237406  .00000019  00000-0  24402-4 0  9998
2 44909  82.5227 332.6037 0218489 119.2888 243.0243 12.79749054303717
SALSAT (TUBSAT 22)
1 46495U 20068K   26178.74142451  .00007317  00000-0  25510-3 0  9990
2 46495  97.8846 182.4496 0007843 262.7765  97.2583 15.29943751316979
CAMSAT XW-3 (CAS-9)
1 50466U 21131B   26178.95339106  .00000278  00000-0  99451-4 0  9998
2 50466  98.4985 271.2849 0005336  71.8715 288.3054 14.41365955236661
ROBUSTA 1F (MTCUBE-2)
1 53109U 22080E   26178.76757484 -.00000003  00000-0  00000-0 0  9996
2 53109  70.1441 294.5656 0008984 287.3296  72.6381  6.42583239 92741
UMKA-1 (RS40S)
1 57172U 23091G   26178.94987956  .00006043  00000-0  27546-3 0  9998
2 57172  97.5051 237.6058 0014258  84.4704 275.8157 15.20939248165649
CUBESX-HSE-3 (RS42S)
1 57178U 23091N   26178.95568149  .00012950  00000-0  42752-3 0  9994
2 57178  97.5095 244.6799 0011419  60.9784 299.2600 15.31479800166072
MONITOR-3 (RS58S)
1 57180U 23091Q   26178.93860618  .00010713  00000-0  39330-3 0  9994
2 57180  97.5086 242.4642 0012642  67.3400 292.9175 15.28052672165934
MONITOR-4 (RS57S)
1 57182U 23091S   26178.91706616  .00010743  00000-0  39337-3 0  9991
2 57182  97.5080 242.4143 0012661  67.6781 292.5799 15.28137301165933
MONITOR-2 (RS39S)
1 57184U 23091U   26178.91883748  .00005123  00000-0  24760-3 0  9995
2 57184  97.5072 237.1325 0012673  78.6637 281.6020 15.19006672165587
SVYATOBOR-1 (RS60S)
1 57187U 23091X   26178.93947517  .00008924  00000-0  34112-3 0  9999
2 57187  97.5091 242.8164 0010407  61.8873 298.3416 15.26792093165956
VIZARD-METEO (RS38S)
1 57189U 23091Z   26178.96063112  .00017050  00000-0  48229-3 0  9998
2 57189  97.5095 248.6632 0007415  43.9199 316.2633 15.36360834166343
UTMN-2 (RS27S)
1 57203U 23091AP  26178.96741307  .00012432  00000-0  40045-3 0  9991
2 57203  97.5091 246.3389 0008537  50.8623 309.3376 15.32308124166195
POLYTECH UNIVERSE-3 (RS46S)
1 57191U 23091AB  26178.94460324  .00004777  00000-0  22936-3 0  9994
2 57191  97.5048 236.6622 0017075  92.8472 267.4716 15.19213363165589
